{
  "norad_id": 65639,
  "name": "STARLINK-35127",
  "history": [
    {
      "epoch": "2026-04-16T18:30:09.083808Z",
      "apogee_km": 476.14190984331435,
      "perigee_km": 474.26820612466054,
      "latitude_deg": -3.8749015295261264e-05,
      "longitude_deg": 7.587051655511383,
      "height_km": 475.92579750513954,
      "semi_major_axis_km": 6853.342057983987,
      "eccentricity": 0.0001367,
      "inclination_deg": 53.1588,
      "raan_deg": 130.0388,
      "arg_perigee_deg": 79.1023,
      "mean_anomaly_deg": 281.0131,
      "mean_motion_rev_day": 15.30203353
    },
    {
      "epoch": "2026-04-17T18:00:57.006720Z",
      "apogee_km": 475.77244491397505,
      "perigee_km": 474.62245539323976,
      "latitude_deg": -8.173262831783657e-06,
      "longitude_deg": 9.371739530661461,
      "height_km": 475.91871417558264,
      "semi_major_axis_km": 6853.334450153608,
      "eccentricity": 8.39e-05,
      "inclination_deg": 53.1565,
      "raan_deg": 125.4888,
      "arg_perigee_deg": 72.0639,
      "mean_anomaly_deg": 288.0453,
      "mean_motion_rev_day": 15.30205901
    },
    {
      "epoch": "2026-04-18T08:07:25.922208Z",
      "apogee_km": 476.70288921988686,
      "perigee_km": 473.6443937468057,
      "latitude_deg": 1.6267882554470466e-05,
      "longitude_deg": 154.44018053865483,
      "height_km": 475.67954783175867,
      "semi_major_axis_km": 6853.310641483346,
      "eccentricity": 0.00022314,
      "inclination_deg": 53.1569,
      "raan_deg": 122.7571,
      "arg_perigee_deg": 75.2025,
      "mean_anomaly_deg": 284.9223,
      "mean_motion_rev_day": 15.30213875
    },
    {
      "epoch": "2026-04-19T17:02:34.704096Z",
      "apogee_km": 475.8007906112234,
      "perigee_km": 474.6302380017805,
      "latitude_deg": -1.4600921741641984e-05,
      "longitude_deg": 12.930825790959538,
      "height_km": 475.98724176538076,
      "semi_major_axis_km": 6853.352514306502,
      "eccentricity": 8.54e-05,
      "inclination_deg": 53.1558,
      "raan_deg": 116.3863,
      "arg_perigee_deg": 77.5192,
      "mean_anomaly_deg": 282.5904,
      "mean_motion_rev_day": 15.30199851
    },
    {
      "epoch": "2026-04-20T07:09:03.688704Z",
      "apogee_km": 476.20853834983154,
      "perigee_km": 474.2416234326156,
      "latitude_deg": -5.188281225634031e-05,
      "longitude_deg": 157.99943071058433,
      "height_km": 476.0493419084542,
      "semi_major_axis_km": 6853.362080891223,
      "eccentricity": 0.0001435,
      "inclination_deg": 53.1572,
      "raan_deg": 113.6551,
      "arg_perigee_deg": 85.7257,
      "mean_anomaly_deg": 274.3907,
      "mean_motion_rev_day": 15.30196647
    },
    {
      "epoch": "2026-04-21T06:39:50.636160Z",
      "apogee_km": 475.9631738412363,
      "perigee_km": 474.3436042564963,
      "latitude_deg": 3.3858560648491635e-05,
      "longitude_deg": 159.79053163797784,
      "height_km": 476.2363521086099,
      "semi_major_axis_km": 6853.290389048866,
      "eccentricity": 0.00011816,
      "inclination_deg": 53.1583,
      "raan_deg": 109.1074,
      "arg_perigee_deg": 103.1995,
      "mean_anomaly_deg": 256.9138,
      "mean_motion_rev_day": 15.30220658
    },
    {
      "epoch": "2026-04-21T23:54:24.745536Z",
      "apogee_km": 475.92468589580585,
      "perigee_km": 474.26305153937665,
      "latitude_deg": -7.813895632118494e-06,
      "longitude_deg": -102.89966066133447,
      "height_km": 476.1514512114654,
      "semi_major_axis_km": 6853.230868717591,
      "eccentricity": 0.00012123,
      "inclination_deg": 53.1587,
      "raan_deg": 105.7675,
      "arg_perigee_deg": 101.07,
      "mean_anomaly_deg": 259.0437,
      "mean_motion_rev_day": 15.30240593
    },
    {
      "epoch": "2026-04-23T02:33:19.374336Z",
      "apogee_km": 475.79662110445406,
      "perigee_km": 474.5467146696037,
      "latitude_deg": -4.2920788629263255e-05,
      "longitude_deg": -148.879324782736,
      "height_km": 475.71457199680884,
      "semi_major_axis_km": 6853.308667887029,
      "eccentricity": 9.119e-05,
      "inclination_deg": 53.159,
      "raan_deg": 100.6099,
      "arg_perigee_deg": 55.2996,
      "mean_anomaly_deg": 304.809,
      "mean_motion_rev_day": 15.30214536
    },
    {
      "epoch": "2026-04-24T05:12:13.521024Z",
      "apogee_km": 475.8625519273901,
      "perigee_km": 474.4631081021007,
      "latitude_deg": -5.294857720149991e-05,
      "longitude_deg": 165.14404492941017,
      "height_km": 475.7922354244807,
      "semi_major_axis_km": 6853.299830014745,
      "eccentricity": 0.0001021,
      "inclination_deg": 53.1602,
      "raan_deg": 95.4533,
      "arg_perigee_deg": 67.3776,
      "mean_anomaly_deg": 292.7332,
      "mean_motion_rev_day": 15.30217496
    }
  ]
}